[
    {
        "Altitude(m)": 604983.0530859357,
        "Argument of Periapsis(deg)": 0.0,
        "Eccentricity": 0.0,
        "Inclination(deg)": 60.0,
        "Latitude(deg)": -0.09274534651594818,
        "Longitude(deg)": -79.91608360791527,
        "Mean Anomaly(deg)": -180.00000000000003,
        "RAAN(deg)": 200.0,
        "Satellite Name": "Test1 891",
        "Satellite Number": 891,
        "Semi-Major Axis(m)": 6980739.136638005,
        "Time(s)": 0
    },
    {
        "Altitude(m)": 605055.3332268127,
        "Argument of Periapsis(deg)": 0.00010418945913296404,
        "Eccentricity": 0.0,
        "Inclination(deg)": 60.0,
        "Latitude(deg)": -0.633155245470993,
        "Longitude(deg)": -79.64795874339465,
        "Mean Anomaly(deg)": -179.37989385453818,
        "RAAN(deg)": 199.99957995086027,
        "Satellite Name": "Test1 891",
        "Satellite Number": 891,
        "Semi-Major Axis(m)": 6980739.136638005,
        "Time(s)": 10
    }
]